{
    "links": {
        "self": "http://www.neowsapp.com/rest/v1/neo/3515660?api_key=iIulBulltgU6a56xZRHN4H3l9WmuAYTsLGpBGhQ2"
    },
    "id": "3515660",
    "neo_reference_id": "3515660",
    "name": "(2010 GQ33)",
    "designation": "2010 GQ33",
    "nasa_jpl_url": "http://ssd.jpl.nasa.gov/sbdb.cgi?sstr=3515660",
    "absolute_magnitude_h": 25.9,
    "estimated_diameter": {
        "kilometers": {
            "estimated_diameter_min": 0.0175612318,
            "estimated_diameter_max": 0.0392681082
        },
        "meters": {
            "estimated_diameter_min": 17.561231848,
            "estimated_diameter_max": 39.2681081809
        },
        "miles": {
            "estimated_diameter_min": 0.0109120402,
            "estimated_diameter_max": 0.0244000636
        },
        "feet": {
            "estimated_diameter_min": 57.6155918963,
            "estimated_diameter_max": 128.8323800441
        }
    },
    "is_potentially_hazardous_asteroid": false,
    "close_approach_data": [
        {
            "close_approach_date": "2010-03-17",
            "close_approach_date_full": "2010-Mar-17 17:53",
            "epoch_date_close_approach": 1268848380000,
            "relative_velocity": {
                "kilometers_per_second": "6.3062088744",
                "kilometers_per_hour": "22702.3519479715",
                "miles_per_hour": "14106.3586312271"
            },
            "miss_distance": {
                "astronomical": "0.043834979",
                "lunar": "17.051806831",
                "kilometers": "6557619.48989473",
                "miles": "4074715.803938074"
            },
            "orbiting_body": "Earth"
        }
    ],
    "orbital_data": {
        "orbit_id": "9",
        "orbit_determination_date": "2017-04-06 08:57:50",
        "first_observation_date": "2010-04-11",
        "last_observation_date": "2010-04-17",
        "data_arc_in_days": 6,
        "observations_used": 21,
        "orbit_uncertainty": "9",
        "minimum_orbit_intersection": ".037412",
        "jupiter_tisserand_invariant": "3.902",
        "epoch_osculation": "2455300.5",
        "eccentricity": ".4468259376557717",
        "semi_major_axis": "1.830983405383585",
        "inclination": "2.633731248173073",
        "ascending_node_longitude": "205.1661147046046",
        "orbital_period": "904.9509477065833",
        "perihelion_distance": "1.012852528440907",
        "perihelion_argument": "312.6370362193061",
        "aphelion_distance": "2.649114282326264",
        "perihelion_time": "2455257.526754537557",
        "mean_anomaly": "17.09525627404008",
        "mean_motion": ".3978116172068197",
        "equinox": "J2000",
        "orbit_class": {
            "orbit_class_type": "APO",
            "orbit_class_description": "Near-Earth asteroid orbits which cross the Earth’s orbit similar to that of 1862 Apollo",
            "orbit_class_range": "a (semi-major axis) > 1.0 AU; q (perihelion) < 1.017 AU"
        }
    },
    "is_sentry_object": false
}